NORAD_CAT_ID,OBJECT_NAME,OBJECT_TYPE,EPOCH,MEAN_MOTION,ECCENTRICITY,INCLINATION,RA_OF_ASC_NODE,ARG_OF_PERICENTER,MEAN_ANOMALY,BSTAR,MEAN_MOTION_DOT,MEAN_MOTION_DDOT,TLE_LINE0,TLE_LINE1,TLE_LINE2,SEMIMAJOR_AXIS,PERIOD,APOGEE,PERIGEE,DECAYED
52126.0,STARLINK-3732,PAYLOAD,2023-01-28 16:19:09,15.08848405,0.0001742,53.218,128.8681,97.7928,262.3262,1.271e-05,-8.6e-07,0.0,0 STARLINK-3732,1 52126U 22029AQ  23028.67997383 -.00000086  00000-0  12710-4 0  9998,2 52126  53.2180 128.8681 0001742  97.7928 262.3262 15.08848405 49422,6917.855,95.437,540.925,538.515,0.0
52126.0,STARLINK-3732,PAYLOAD,2023-01-29 11:23:48,15.08835045,0.0001797,53.2173,125.2991,103.4232,256.696,4.874e-05,4.88e-06,0.0,0 STARLINK-3732,1 52126U 22029AQ  23029.47486114  .00000488  00000-0  48740-4 0  9999,2 52126  53.2173 125.2991 0001797 103.4232 256.6960 15.08835045 49542,6917.896,95.438,541.004,538.517,0.0
52126.0,STARLINK-3732,PAYLOAD,2023-01-29 12:59:11,15.0883758,0.000159,53.2179,125.0042,89.2194,270.898,5.8155e-05,6.38e-06,0.0,0 STARLINK-3732,1 52126U 22029AQ  23029.54110001  .00000638  00000-0  58155-4 0  9994,2 52126  53.2179 125.0042 0001590  89.2194 270.8980 15.08837580 49559,6917.888,95.438,540.853,538.653,0.0
52126.0,STARLINK-3732,PAYLOAD,2023-01-30 11:14:35,15.08834914,0.0001548,53.2184,120.8406,95.606,264.5108,4.1138e-05,3.67e-06,0.0,0 STARLINK-3732,1 52126U 22029AQ  23030.46846390  .00000367  00000-0  41138-4 0  9996,2 52126  53.2184 120.8406 0001548  95.6060 264.5108 15.08834914 49693,6917.896,95.438,540.832,538.69,0.0
52126.0,STARLINK-3732,PAYLOAD,2023-01-30 22:22:17,15.08840398,0.0001406,53.2184,118.759,100.3792,259.7359,-1.0697e-05,-4.58e-06,0.0,0 STARLINK-3732,1 52126U 22029AQ  23030.93214183 -.00000458  00000-0 -10697-4 0  9996,2 52126  53.2184 118.7590 0001406 100.3792 259.7359 15.08840398 49767,6917.879,95.438,540.717,538.772,0.0
52126.0,STARLINK-3732,PAYLOAD,2023-01-31 11:05:22,15.08840038,0.0001603,53.2195,116.3809,106.4906,253.6262,5.5031e-05,5.88e-06,0.0,0 STARLINK-3732,1 52126U 22029AQ  23031.46206178  .00000588  00000-0  55031-4 0  9993,2 52126  53.2195 116.3809 0001603 106.4906 253.6262 15.08840038 49845,6917.88,95.438,540.854,538.636,0.0
52126.0,STARLINK-3732,PAYLOAD,2023-01-31 22:13:03,15.08841741,0.0001479,53.2194,114.3003,100.4069,259.709,8.5354e-05,1.071e-05,0.0,0 STARLINK-3732,1 52126U 22029AQ  23031.92573980  .00001071  00000-0  85354-4 0  9991,2 52126  53.2194 114.3003 0001479 100.4069 259.7090 15.08841741 49919,6917.875,95.437,540.763,538.717,0.0
52126.0,STARLINK-3732,PAYLOAD,2023-02-01 10:56:09,15.08839902,0.0001554,53.2198,111.9215,93.2803,266.8367,7.4518e-05,8.98e-06,0.0,0 STARLINK-3732,1 52126U 22029AQ  23032.45566196  .00000898  00000-0  74518-4 0  9997,2 52126  53.2198 111.9215 0001554  93.2803 266.8367 15.08839902 49990,6917.881,95.438,540.821,538.671,0.0
52126.0,STARLINK-3732,PAYLOAD,2023-02-01 12:31:32,15.08842726,0.0001543,53.22,111.6244,100.2686,259.848,4.9882e-05,5.06e-06,0.0,0 STARLINK-3732,1 52126U 22029AQ  23032.52190066  .00000506  00000-0  49882-4 0  9996,2 52126  53.2200 111.6244 0001543 100.2686 259.8480 15.08842726 50009,6917.872,95.437,540.804,538.67,0.0
52126.0,STARLINK-3732,PAYLOAD,2023-02-02 02:50:01,15.08831411,0.0001376,53.2182,108.9485,80.5155,279.5992,5.9897e-05,6.65e-06,0.0,0 STARLINK-3732,1 52126U 22029AQ  23033.11806765  .00000665  00000-0  59897-4 0  9995,2 52126  53.2182 108.9485 0001376  80.5155 279.5992 15.08831411 50094,6917.907,95.438,540.724,538.82,0.0
52126.0,STARLINK-3732,PAYLOAD,2023-02-02 13:57:42,15.08844896,0.0001299,53.2176,106.8643,88.9392,271.1749,4.7629e-05,4.7e-06,0.0,0 STARLINK-3732,1 52126U 22029AQ  23033.58174069  .00000470  00000-0  47629-4 0  9995,2 52126  53.2176 106.8643 0001299  88.9392 271.1749 15.08844896 50166,6917.865,95.437,540.629,538.832,0.0
52126.0,STARLINK-3732,PAYLOAD,2023-02-03 05:51:34,15.08835423,0.0001552,53.2189,103.8928,84.7094,275.4076,9.8202e-06,-1.32e-06,0.0,0 STARLINK-3732,1 52126U 22029AQ  23034.24414939 -.00000132  00000-0  98202-5 0  9992,2 52126  53.2189 103.8928 0001552  84.7094 275.4076 15.08835423 50265,6917.894,95.438,540.833,538.686,0.0
52126.0,STARLINK-3732,PAYLOAD,2023-02-03 09:02:20,15.08836638,0.0001448,53.217,103.2967,85.4131,274.7026,2.9464e-05,1.81e-06,0.0,0 STARLINK-3732,1 52126U 22029AQ  23034.37662799  .00000181  00000-0  29464-4 0  9991,2 52126  53.2170 103.2967 0001448  85.4131 274.7026 15.08836638 50284,6917.891,95.438,540.757,538.754,0.0
52126.0,STARLINK-3732,PAYLOAD,2023-02-04 10:28:30,15.08843714,0.0001552,53.218,98.5394,82.4143,277.7026,0.00012675,1.73e-05,0.0,0 STARLINK-3732,1 52126U 22029AQ  23035.43646194  .00001730  00000-0  12675-3 0  9996,2 52126  53.2180  98.5394 0001552  82.4143 277.7026 15.08843714 50445,6917.869,95.437,540.808,538.66,0.0
52126.0,STARLINK-3732,PAYLOAD,2023-02-04 13:39:16,15.08849892,0.0001707,53.2172,97.9445,82.6413,277.4773,0.00015827,2.232e-05,0.0,0 STARLINK-3732,1 52126U 22029AQ  23035.56893733  .00002232  00000-0  15827-3 0  9993,2 52126  53.2172  97.9445 0001707  82.6413 277.4773 15.08849892 50461,6917.85,95.437,540.896,538.534,0.0
52126.0,STARLINK-3732,PAYLOAD,2023-02-04 21:36:13,15.0883229,0.0001734,53.2164,96.4569,88.7835,271.3356,2.776e-05,1.54e-06,0.0,0 STARLINK-3732,1 52126U 22029AQ  23035.90015174  .00000154  00000-0  27760-4 0  9997,2 52126  53.2164  96.4569 0001734  88.7835 271.3356 15.08832290 50518,6917.904,95.438,540.969,538.569,0.0
52126.0,STARLINK-3732,PAYLOAD,2023-02-05 03:57:45,15.08832023,0.0001498,53.2177,95.2689,85.6453,274.471,3.3339e-05,2.43e-06,0.0,0 STARLINK-3732,1 52126U 22029AQ  23036.16511240  .00000243  00000-0  33339-4 0  9999,2 52126  53.2177  95.2689 0001498  85.6453 274.4710 15.08832023 50557,6917.905,95.438,540.806,538.733,0.0
52126.0,STARLINK-3732,PAYLOAD,2023-02-05 13:30:03,15.08842529,0.0001419,53.2173,93.4825,99.7931,260.3222,9.2039e-05,1.177e-05,0.0,0 STARLINK-3732,1 52126U 22029AQ  23036.56254575  .00001177  00000-0  92039-4 0  9997,2 52126  53.2173  93.4825 0001419  99.7931 260.3222 15.08842529 50616,6917.873,95.437,540.719,538.756,0.0
52126.0,STARLINK-3732,PAYLOAD,2023-02-06 03:48:33,15.08825091,0.0001482,53.2176,90.8063,103.5092,256.6065,-0.00017077,-3.004e-05,0.0,0 STARLINK-3732,1 52126U 22029AQ  23037.15871900 -.00003004  00000-0 -17077-3 0  9991,2 52126  53.2176  90.8063 0001482 103.5092 256.6065 15.08825091 50704,6917.926,95.438,540.816,538.766,0.0
52126.0,STARLINK-3732,PAYLOAD,2023-02-06 13:20:51,15.08833719,0.0001608,53.2171,89.021,113.7296,246.3865,-4.7952e-05,-1.051e-05,0.0,0 STARLINK-3732,1 52126U 22029AQ  23037.55615714 -.00001051  00000-0 -47952-4 0  9990,2 52126  53.2171  89.0210 0001608 113.7296 246.3865 15.08833719 50768,6917.9,95.438,540.877,538.652,0.0
52126.0,STARLINK-3732,PAYLOAD,2023-02-07 03:39:19,15.08849589,0.000131,53.2169,86.3469,98.3841,261.73,0.00036537,5.533e-05,0.0,0 STARLINK-3732,1 52126U 22029AQ  23038.15231172  .00005533  00000-0  36537-3 0  9992,2 52126  53.2169  86.3469 0001310  98.3841 261.7300 15.08849589 50852,6917.851,95.437,540.622,538.81,0.0
52126.0,STARLINK-3732,PAYLOAD,2023-02-07 11:36:14,15.0888001,0.0001414,53.2171,84.8611,97.1123,263.003,0.0011502,0.00018085,0.0,0 STARLINK-3732,1 52126U 22029AQ  23038.48350452  .00018085  00000-0  11502-2 0  9991,2 52126  53.2171  84.8611 0001414  97.1123 263.0030 15.08880010 50907,6917.758,95.435,540.601,538.645,0.0
52126.0,STARLINK-3732,PAYLOAD,2023-02-07 13:11:37,15.08893366,0.0001419,53.2172,84.5626,99.7169,260.3984,0.0016949,0.00026829,0.0,0 STARLINK-3732,1 52126U 22029AQ  23038.54974288  .00026829  00000-0  16949-2 0  9992,2 52126  53.2172  84.5626 0001419  99.7169 260.3984 15.08893366 50911,6917.717,95.434,540.564,538.601,0.0
52126.0,STARLINK-3732,PAYLOAD,2023-02-08 11:27:01,15.08861212,8.82e-05,53.2166,80.3998,102.2089,257.9002,0.0015825,0.00025002,0.0,0 STARLINK-3732,1 52126U 22029AQ  23039.47710045  .00025002  00000-0  15825-2 0  9998,2 52126  53.2166  80.3998 0000882 102.2089 257.9002 15.08861212 51058,6917.816,95.436,540.291,539.07,0.0
52126.0,STARLINK-3732,PAYLOAD,2023-02-09 03:20:53,15.08854067,0.0001213,53.2166,77.426,114.7471,245.3648,0.0017869,0.00028276,0.0,0 STARLINK-3732,1 52126U 22029AQ  23040.13950425  .00028276  00000-0  17869-2 0  9997,2 52126  53.2166  77.4260 0001213 114.7471 245.3648 15.08854067 51157,6917.837,95.437,540.542,538.863,0.0
52126.0,STARLINK-3732,PAYLOAD,2023-02-09 11:17:49,15.08841358,0.0001061,53.217,75.9382,104.2928,255.8182,0.00066253,0.00010272,0.0,0 STARLINK-3732,1 52126U 22029AQ  23040.47070678  .00010272  00000-0  66253-3 0  9996,2 52126  53.2170  75.9382 0001061 104.2928 255.8182 15.08841358 51206,6917.876,95.437,540.475,539.007,0.0
52126.0,STARLINK-3732,PAYLOAD,2023-02-09 19:14:45,15.08830569,0.0001358,53.2184,74.4518,101.0467,259.0678,0.00018918,2.723e-05,0.0,0 STARLINK-3732,1 52126U 22029AQ  23040.80191198  .00002723  00000-0  18918-3 0  9991,2 52126  53.2184  74.4518 0001358 101.0467 259.0678 15.08830569 51251,6917.909,95.438,540.714,538.835,0.0
52126.0,STARLINK-3732,PAYLOAD,2023-02-10 01:36:18,15.0883522,0.0001556,53.217,73.2629,95.9656,264.1514,0.0001912,2.756e-05,0.0,0 STARLINK-3732,1 52126U 22029AQ  23041.06687547  .00002756  00000-0  19120-3 0  9990,2 52126  53.2170  73.2629 0001556  95.9656 264.1514 15.08835220 51296,6917.895,95.438,540.836,538.684,0.0
52126.0,STARLINK-3732,PAYLOAD,2023-02-10 09:33:13,15.08842955,0.0001254,53.2164,71.7782,89.3111,270.8025,0.00056464,8.71e-05,0.0,0 STARLINK-3732,1 52126U 22029AQ  23041.39807336  .00008710  00000-0  56464-3 0  9994,2 52126  53.2164  71.7782 0001254  89.3111 270.8025 15.08842955 51340,6917.871,95.437,540.604,538.869,0.0
52126.0,STARLINK-3732,PAYLOAD,2023-02-10 19:05:32,15.08843697,0.000123,53.2162,69.9932,77.994,282.119,0.00057159,8.822e-05,0.0,0 STARLINK-3732,1 52126U 22029AQ  23041.79551464  .00008822  00000-0  57159-3 0  9992,2 52126  53.2162  69.9932 0001230  77.9940 282.1190 15.08843697 51401,6917.869,95.437,540.585,538.883,0.0
